GLOBALSTAR M063         
1 26081U 00008A   24289.80919564 -.00000022  00000+0  88160-3 0  9992
2 26081  51.9979  35.1688 0004809 196.3573 336.8414 11.86162057128574
GLOBALSTAR M062         
1 26082U 00008B   24290.18622760 -.00000060  00000+0  27001-3 0  9994
2 26082  51.9835  93.3041 0006210 317.0167 213.7762 12.43450701128764
GLOBALSTAR M060         
1 26083U 00008C   24289.96165281 -.00000154  00000+0 -62511-3 0  9999
2 26083  52.0048  19.4217 0002939 358.6600 173.4324 12.17646290122619
GLOBALSTAR M064         
1 26084U 00008D   24289.83354122 -.00000019  00000+0  91289-3 0  9993
2 26084  52.0004 136.8166 0001103 350.2068   9.8743 11.88524215138047
GLOBALSTAR M065         
1 31571U 07020A   24290.21665694 -.00000121  00000+0 -98869-4 0  9991
2 31571  51.9886 248.8216 0010155 122.7340 342.2653 12.61981182802901
GLOBALSTAR M072         
1 31574U 07020D   24289.79794137 -.00000044  00000+0  33344-3 0  9999
2 31574  52.0085 301.8243 0000046 325.3314 206.1562 12.62266646801950
GLOBALSTAR M071         
1 31576U 07020F   24289.88647786 -.00000048  00000+0  30938-3 0  9998
2 31576  52.0061 210.7640 0001168   8.1596  68.3899 12.62260043464882
